[{"OBJECT_NAME":"STARLINK-2705","OBJECT_ID":"2021-044AL","EPOCH":"2026-03-09T08:07:12.850752","MEAN_MOTION":15.31035302,"ECCENTRICITY":0.00015812,"INCLINATION":53.1598,"RA_OF_ASC_NODE":105.8091,"ARG_OF_PERICENTER":77.9359,"MEAN_ANOMALY":282.1819,"EPHEMERIS_TYPE":0,"CLASSIFICATION_TYPE":"U","NORAD_CAT_ID":48672,"ELEMENT_SET_NO":999,"REV_AT_EPOCH":26390,"BSTAR":-0.00015241071,"MEAN_MOTION_DOT":-4.992e-5,"MEAN_MOTION_DDOT":0},{"OBJECT_NAME":"LYNK TOWER 5","OBJECT_ID":"2024-043Z","EPOCH":"2026-03-09T22:11:51.175104","MEAN_MOTION":15.29454506,"ECCENTRICITY":0.00104056,"INCLINATION":97.5458,"RA_OF_ASC_NODE":204.7305,"ARG_OF_PERICENTER":234.6422,"MEAN_ANOMALY":125.3846,"EPHEMERIS_TYPE":0,"CLASSIFICATION_TYPE":"U","NORAD_CAT_ID":59121,"ELEMENT_SET_NO":999,"REV_AT_EPOCH":11186,"BSTAR":0.00031901545,"MEAN_MOTION_DOT":9.048e-5,"MEAN_MOTION_DDOT":0}]
